SKYSAT-A                
1 39418U 13066C   26073.92856016  .00003800  00000+0  22158-3 0  9997
2 39418  97.3947 126.3094 0019947 281.0017  78.8970 15.12396780674233
SKYSAT-B                
1 40072U 14037D   26073.84106373  .00001800  00000+0  20404-3 0  9999
2 40072  98.3730  27.5048 0004645 213.1543 146.9382 14.87749231631930
SKYSAT-C1               
1 41601U 16040C   26073.85225013  .00012891  00000+0  38608-3 0  9995
2 41601  96.9697 110.7361 0003113  43.2426 316.9062 15.34631154543392
SKYSAT-C4               
1 41771U 16058B   26073.57626510  .00022462  00000+0  46837-3 0  9996
2 41771  96.9288  99.4611 0001269 131.7607 228.3752 15.45566489530849
SKYSAT-C5               
1 41772U 16058C   26073.84767610  .00011313  00000+0  34482-3 0  9990
2 41772  97.0612 118.6898 0000376 100.9587 259.1699 15.34111302529283
SKYSAT-C2               
1 41773U 16058D   26073.64732832  .00017182  00000+0  43416-3 0  9994
2 41773  97.0277  99.4011 0004664  57.5399 302.6298 15.39850850530493
SKYSAT-C3               
1 41774U 16058E   26073.59877289  .00028643  00000+0  53781-3 0  9995
2 41774  96.9177 108.2625 0001752 113.2146 246.9290 15.48568039531450
SKYSAT-C11              
1 42987U 17068A   26073.93722210  .00040383  00000+0  65187-3 0  9993
2 42987  97.4205 219.0972 0000428  83.3965 276.7337 15.52788202468594
SKYSAT-C10              
1 42988U 17068B   26073.88928094  .00013730  00000+0  43533-3 0  9993
2 42988  97.4338 210.0259 0001006  95.1690 264.9666 15.32819988467902
SKYSAT-C9               
1 42989U 17068C   26073.91469053  .00019123  00000+0  49472-3 0  9993
2 42989  97.4263 210.1326 0009924 115.7701 244.4570 15.39078010468240
SKYSAT-C8               
1 42990U 17068D   26073.93177568  .00015408  00000+0  45685-3 0  9998
2 42990  97.4356 209.5255 0001268  97.5862 262.5526 15.34925793467847
SKYSAT-C7               
1 42991U 17068E   26073.92202902  .00015715  00000+0  46625-3 0  9995
2 42991  97.4367 210.4986 0007269  87.6996 272.5080 15.34877851467901
SKYSAT-C6               
1 42992U 17068F   26073.92596767  .00014116  00000+0  44997-3 0  9995
2 42992  97.4401 210.7723 0003743 115.5120 244.6509 15.32638763467873
SKYSAT-C12              
1 43797U 18099AR  26073.93763489  .00020660  00000+0  42716-3 0  9990
2 43797  96.9377 101.1213 0005943 125.0761 235.1048 15.45814282407289
SKYSAT-C13              
1 43802U 18099AW  26073.86756149  .00110919  00000+0  65635-3 0  9996
2 43802  96.9400 121.5175 0004680 183.8070 176.3163 15.77762937407983
FLOCK 4Q-16             
1 58271U 23174R   26073.80768925  .00032566  00000+0  68824-3 0  9995
2 58271  97.3857 160.0230 0008134 143.0553 217.1258 15.45071157130986
FLOCK 4Q-11             
1 58273U 23174T   26073.81368050  .00031805  00000+0  66339-3 0  9997
2 58273  97.3897 160.5158 0007744 141.1384 219.0423 15.45466257130998
FLOCK 4Q-36             
1 58274U 23174U   26073.51197960  .00036528  00000+0  61766-3 0  9991
2 58274  97.3878 162.9127 0007816 131.0323 229.1606 15.51474570131126
FLOCK 4Q-12             
1 58275U 23174V   26073.70990793  .00113559  00000+0  17993-2 0  9990
2 58275  97.3873 163.0114 0004948 140.5122 219.6492 15.52994783131171
FLOCK 4Q-28             
1 58280U 23174AA  26073.79842219  .00039505  00000+0  71805-3 0  9995
2 58280  97.3910 162.3053 0007366 136.3626 223.8209 15.49413406131102
FLOCK 4Q-27             
1 58282U 23174AC  26073.72974477  .00036739  00000+0  66910-3 0  9999
2 58282  97.3839 161.7682 0006858 134.2014 225.9801 15.49375762131101
FLOCK 4Q-26             
1 58284U 23174AE  26073.69811735  .00041120  00000+0  70059-3 0  9993
2 58284  97.3894 163.1885 0007315 134.1305 226.0550 15.51240896131156
FLOCK 4Q-31             
1 58285U 23174AF  26073.66614133  .00051640  00000+0  89052-3 0  9995
2 58285  97.3937 162.7976 0007661 136.6714 223.5142 15.50846889131103
FLOCK 4Q-30             
1 58286U 23174AG  26073.71800230  .00051046  00000+0  87427-3 0  9991
2 58286  97.3949 163.0339 0007109 136.3713 223.8102 15.51047194131121
PELICAN-1               
1 58296U 23174AS  26072.22151359  .00029201  00000+0  31803-3 0  9993
2 58296  97.3987 167.1452 0009663 250.9049 109.1163 15.63326024131114
FLOCK 4Q-25             
1 58303U 23174AZ  26073.80118770  .00058658  00000+0  80628-3 0  9994
2 58303  97.3858 164.0461 0005310 120.1999 239.9783 15.57097919131260
FLOCK 4Q-29             
1 58304U 23174BA  26073.94439797  .00039410  00000+0  70323-3 0  9991
2 58304  97.3935 162.8496 0007378 126.6215 233.5716 15.49939738131136
FLOCK 4Q-22             
1 58306U 23174BC  26073.70231956  .00049156  00000+0  79598-3 0  9995
2 58306  97.3840 162.7988 0006268 131.0230 229.1566 15.52636740131171
FLOCK 4Q-23             
1 58307U 23174BD  26073.71333503  .00060256  00000+0  86639-3 0  9996
2 58307  97.3952 164.4057 0006722 125.0685 235.1201 15.55861331131211
FLOCK 4Q-33             
1 58308U 23174BE  26073.56270898  .00046884  00000+0  78602-3 0  9999
2 58308  97.3871 162.5852 0007450 119.7277 240.4717 15.51665227131134
FLOCK 4Q-35             
1 58309U 23174BF  26073.68202984  .00043424  00000+0  75645-3 0  9995
2 58309  97.3896 162.8664 0007824 133.3390 226.8515 15.50597931131138
FLOCK 4Q-34             
1 58316U 23174BN  26073.72351978  .00059846  00000+0  85249-3 0  9992
2 58316  97.3844 163.8101 0006572 125.5690 234.6178 15.56118184131228
FLOCK 4Q-7              
1 58318U 23174BQ  26073.72115540  .00045708  00000+0  82373-3 0  9994
2 58318  97.3931 162.4268 0007481 123.3058 236.8910 15.49624848131094
FLOCK 4Q-2              
1 58320U 23174BS  26073.92188035  .00032050  00000+0  67158-3 0  9998
2 58320  97.3857 160.4209 0007917 123.3508 236.8500 15.45327293131029
FLOCK 4Q-9              
1 58322U 23174BU  26073.68283703  .00033502  00000+0  70979-3 0  9999
2 58322  97.3902 160.2226 0008165 126.0623 234.1383 15.44991596130978
FLOCK 4Q-4              
1 58327U 23174BZ  26073.81543453  .00028719  00000+0  61832-3 0  9992
2 58327  97.3854 159.7230 0007827 142.2205 217.9594 15.44550060130977
FLOCK 4Q-13             
1 58328U 23174CA  26073.71137138  .00037018  00000+0  72437-3 0  9996
2 58328  97.4010 162.0688 0007752 135.0599 225.1279 15.47299193131040
FLOCK 4Q-21             
1 58329U 23174CB  26073.71507587  .00058518  00000+0  78009-3 0  9995
2 58329  97.3923 165.2307 0005708 140.6848 219.4823 15.57919748131276
FLOCK 4BE-18            
1 60480U 24149N   26073.68590421  .00027440  00000+0  72193-3 0  9992
2 60480  97.3773 156.6438 0003596 219.8180 140.2802 15.38530438 87766
FLOCK 4BE-7             
1 60481U 24149P   26073.70693365  .00023264  00000+0  65465-3 0  9991
2 60481  97.3796 156.2390 0002618 212.7074 147.4009 15.36478089 87728
FLOCK 4BE-26            
1 60484U 24149S   26073.80831986  .00120665  00000+0  24868-2 0  9992
2 60484  97.3754 156.7397 0006417 228.0499 132.0203 15.45435773 87784
FLOCK 4BE-36            
1 60486U 24149U   26073.71212420  .00029151  00000+0  74486-3 0  9990
2 60486  97.3777 157.2240 0003144 229.8225 130.2746 15.39417077 87809
FLOCK 4BE-25            
1 60487U 24149V   26073.72173646  .00020748  00000+0  58969-3 0  9999
2 60487  97.3834 156.4036 0002010 198.6674 161.4497 15.36191214 87729
FLOCK 4BE-31            
1 60488U 24149W   26073.80838884  .00027593  00000+0  68667-3 0  9992
2 60488  97.3834 157.9538 0002262 217.7011 142.4077 15.40237806 87838
FLOCK 4BE-20            
1 60489U 24149X   26073.70237337  .00019718  00000+0  57402-3 0  9993
2 60489  97.3743 155.5009 0003159 221.0488 139.0519 15.35445874 87706
FLOCK 4BE-23            
1 60490U 24149Y   26073.80062066  .00017955  00000+0  52899-3 0  9997
2 60490  97.3821 155.9240 0002619 228.6982 131.4036 15.35090519 87700
FLOCK 4BE-15            
1 60491U 24149Z   26073.71050966  .00108892  00000+0  25817-2 0  9994
2 60491  97.3753 156.9283 0003730 284.8040  75.2794 15.41315920 87795
FLOCK 4BE-17            
1 60492U 24149AA  26073.70850471  .00022997  00000+0  63949-3 0  9993
2 60492  97.3819 156.5246 0002711 214.8949 145.2118 15.36852006 87730
FLOCK 4BE-22            
1 60494U 24149AC  26073.63995443  .00028341  00000+0  75904-3 0  9999
2 60494  97.3773 156.5128 0003103 235.3516 124.7437 15.37975160 87750
FLOCK 4BE-34            
1 60495U 24149AD  26073.92151439  .00019731  00000+0  52613-3 0  9996
2 60495  97.3818 157.5497 0002883 234.1940 125.9038 15.38183338 87820
FLOCK 4BE-32            
1 60497U 24149AF  26073.80774592  .00027611  00000+0  72152-3 0  9992
2 60497  97.3762 156.9419 0003087 235.5297 124.5657 15.38738644 87800
FLOCK 4BE-30            
1 60499U 24149AH  26073.68870815  .00102237  00000+0  26081-2 0  9992
2 60499  97.3839 157.3905 0002368 243.8091 116.2911 15.39114658 87161
FLOCK 4BE-11            
1 60501U 24149AK  26073.72342467  .00027328  00000+0  69537-3 0  9999
2 60501  97.3738 156.9932 0003271 238.4182 121.6745 15.39557827 87808
FLOCK 4BE-24            
1 60505U 24149AP  26073.70553928  .00027841  00000+0  71191-3 0  9996
2 60505  97.3756 157.2208 0003283 250.9337 109.1553 15.39403654 87813
TANAGER-1               
1 60507U 24149AR  26073.29598309  .00023831  00000+0  53128-3 0  9999
2 60507  97.3772 166.7415 0008062 227.8124 132.2440 15.43551158 88399
FLOCK 4BE-29            
1 60509U 24149AT  26073.72793098  .00028697  00000+0  70285-3 0  9999
2 60509  97.3838 158.4073 0001951 264.6990  95.4034 15.40715933 87851
FLOCK 4BE-2             
1 60511U 24149AV  26073.94559761  .00053181  00000+0  11715-2 0  9991
2 60511  97.3846 159.2292 0003168 247.2538 112.8376 15.43764890 87922
FLOCK 4BE-13            
1 60512U 24149AW  26073.71298592  .00025044  00000+0  64818-3 0  9999
2 60512  97.3753 157.3269 0003519 241.0262 119.0631 15.39052937 87828
FLOCK 4BE-27            
1 60513U 24149AX  26073.71531699  .00014354  00000+0  45641-3 0  9993
2 60513  97.3866 155.6320 0002658 278.9058  81.1883 15.32714859 87669
